{
  "type": "FeatureCollection",
  "features": [
    {
      "type": "Feature",
      "properties": {
        "norad_id": 34765,
        "name": "IRIDIUM 33 DEB",
        "group": "iridium-33-debris",
        "lat": -12.174881782238973,
        "lon": 36.46264912837481,
        "alt_km": 763.0986926185851,
        "timestamp": "2025-12-02T06:27:53.396978+00:00",
        "meta_object_name": "IRIDIUM 33 DEB",
        "meta_object_id": "1997-051LJ",
        "meta_epoch": "2025-12-01T03:58:59.783808",
        "meta_mean_motion": 14.40414704,
        "meta_eccentricity": 0.00144935,
        "meta_inclination": 86.3402,
        "meta_ra_of_asc_node": 37.727,
        "meta_arg_of_pericenter": 253.2379,
        "meta_mean_anomaly": 136.4815,
        "meta_ephemeris_type": 0,
        "meta_classification_type": "U",
        "meta_norad_cat_id": 34765,
        "meta_element_set_no": 999,
        "meta_rev_at_epoch": 87447,
        "meta_bstar": 0.00046218241,
        "meta_mean_motion_dot": 1.488e-05,
        "meta_mean_motion_ddot": 0,
        "tle_line1": "1 34765U 97051LJ  25335.16596972  .00001488  00000+0  46218-3 0  9994",
        "tle_line2": "2 34765  86.3402  37.7270 0014493 253.2379 136.4815 14.40414704874475"
      },
      "geometry": {
        "type": "Point",
        "coordinates": [
          36.46264912837481,
          -12.174881782238973
        ]
      }
    },
    {
      "type": "Feature",
      "properties": {
        "norad_id": 34833,
        "name": "IRIDIUM 33 DEB",
        "group": "iridium-33-debris",
        "lat": 5.748296740892908,
        "lon": 55.86879962756163,
        "alt_km": 729.2349586077489,
        "timestamp": "2025-12-02T06:27:53.396988+00:00",
        "meta_object_name": "IRIDIUM 33 DEB",
        "meta_object_id": "1997-051MH",
        "meta_epoch": "2025-12-01T17:47:26.063232",
        "meta_mean_motion": 14.52261566,
        "meta_eccentricity": 0.0021474,
        "meta_inclination": 86.3938,
        "meta_ra_of_asc_node": 55.7325,
        "meta_arg_of_pericenter": 132.4649,
        "meta_mean_anomaly": 354.4354,
        "meta_ephemeris_type": 0,
        "meta_classification_type": "U",
        "meta_norad_cat_id": 34833,
        "meta_element_set_no": 999,
        "meta_rev_at_epoch": 87555,
        "meta_bstar": 0.00087496,
        "meta_mean_motion_dot": 3.584e-05,
        "meta_mean_motion_ddot": 0,
        "tle_line1": "1 34833U 97051MH  25335.74127388  .00003584  00000+0  87496-3 0  9997",
        "tle_line2": "2 34833  86.3938  55.7325 0021474 132.4649 354.4354 14.52261566875550"
      },
      "geometry": {
        "type": "Point",
        "coordinates": [
          55.86879962756163,
          5.748296740892908
        ]
      }
    },
    {
      "type": "Feature",
      "properties": {
        "norad_id": 34870,
        "name": "IRIDIUM 33 DEB",
        "group": "iridium-33-debris",
        "lat": 22.715645530632276,
        "lon": 137.33161122411758,
        "alt_km": 637.3094483565774,
        "timestamp": "2025-12-02T06:27:53.396997+00:00",
        "meta_object_name": "IRIDIUM 33 DEB",
        "meta_object_id": "1997-051MQ",
        "meta_epoch": "2025-12-01T05:36:37.151712",
        "meta_mean_motion": 14.76055324,
        "meta_eccentricity": 0.0014764,
        "meta_inclination": 86.3102,
        "meta_ra_of_asc_node": 319.3536,
        "meta_arg_of_pericenter": 227.1347,
        "meta_mean_anomaly": 190.7112,
        "meta_ephemeris_type": 0,
        "meta_classification_type": "U",
        "meta_norad_cat_id": 34870,
        "meta_element_set_no": 999,
        "meta_rev_at_epoch": 88741,
        "meta_bstar": 0.0019021,
        "meta_mean_motion_dot": 0.00013168,
        "meta_mean_motion_ddot": 0,
        "tle_line1": "1 34870U 97051MQ  25335.23376333  .00013168  00000+0  19021-2 0  9995",
        "tle_line2": "2 34870  86.3102 319.3536 0014764 227.1347 190.7112 14.76055324887418"
      },
      "geometry": {
        "type": "Point",
        "coordinates": [
          137.33161122411758,
          22.715645530632276
        ]
      }
    },
    {
      "type": "Feature",
      "properties": {
        "norad_id": 34896,
        "name": "IRIDIUM 33 DEB",
        "group": "iridium-33-debris",
        "lat": 17.395270933308716,
        "lon": -27.465096933275824,
        "alt_km": 683.2284745156712,
        "timestamp": "2025-12-02T06:27:53.397008+00:00",
        "meta_object_name": "IRIDIUM 33 DEB",
        "meta_object_id": "1997-051MY",
        "meta_epoch": "2025-11-28T17:59:37.974912",
        "meta_mean_motion": 14.66055051,
        "meta_eccentricity": 0.00237461,
        "meta_inclination": 86.3294,
        "meta_ra_of_asc_node": 332.9598,
        "meta_arg_of_pericenter": 266.6712,
        "meta_mean_anomaly": 266.6276,
        "meta_ephemeris_type": 0,
        "meta_classification_type": "U",
        "meta_norad_cat_id": 34896,
        "meta_element_set_no": 999,
        "meta_rev_at_epoch": 87414,
        "meta_bstar": 0.00096599733,
        "meta_mean_motion_dot": 5.342e-05,
        "meta_mean_motion_ddot": 0,
        "tle_line1": "1 34896U 97051MY  25332.74974508  .00005342  00000+0  96600-3 0  9998",
        "tle_line2": "2 34896  86.3294 332.9598 0023746 266.6712 266.6276 14.66055051874147"
      },
      "geometry": {
        "type": "Point",
        "coordinates": [
          -27.465096933275824,
          17.395270933308716
        ]
      }
    },
    {
      "type": "Feature",
      "properties": {
        "norad_id": 34926,
        "name": "IRIDIUM 33 DEB",
        "group": "iridium-33-debris",
        "lat": -20.56172142776909,
        "lon": -165.4210720483912,
        "alt_km": 752.5017757051019,
        "timestamp": "2025-12-02T06:27:53.397018+00:00",
        "meta_object_name": "IRIDIUM 33 DEB",
        "meta_object_id": "1997-051NF",
        "meta_epoch": "2025-12-01T03:21:27.813600",
        "meta_mean_motion": 14.53597235,
        "meta_eccentricity": 0.00771875,
        "meta_inclination": 86.1338,
        "meta_ra_of_asc_node": 13.648,
        "meta_arg_of_pericenter": 332.2541,
        "meta_mean_anomaly": 82.2149,
        "meta_ephemeris_type": 0,
        "meta_classification_type": "U",
        "meta_norad_cat_id": 34926,
        "meta_element_set_no": 999,
        "meta_rev_at_epoch": 86288,
        "meta_bstar": 0.0047149855,
        "meta_mean_motion_dot": 0.00020553,
        "meta_mean_motion_ddot": 0,
        "tle_line1": "1 34926U 97051NF  25335.13990525  .00020553  00000+0  47150-2 0  9991",
        "tle_line2": "2 34926  86.1338  13.6480 0077187 332.2541  82.2149 14.53597235862889"
      },
      "geometry": {
        "type": "Point",
        "coordinates": [
          -165.4210720483912,
          -20.56172142776909
        ]
      }
    },
    {
      "type": "Feature",
      "properties": {
        "norad_id": 34985,
        "name": "IRIDIUM 33 DEB",
        "group": "iridium-33-debris",
        "lat": 60.277507788814525,
        "lon": 67.72945912419026,
        "alt_km": 759.9328416432181,
        "timestamp": "2025-12-02T06:27:53.397028+00:00",
        "meta_object_name": "IRIDIUM 33 DEB",
        "meta_object_id": "1997-051NR",
        "meta_epoch": "2025-12-01T05:20:19.248000",
        "meta_mean_motion": 14.4192555,
        "meta_eccentricity": 0.0019807,
        "meta_inclination": 86.3697,
        "meta_ra_of_asc_node": 61.7912,
        "meta_arg_of_pericenter": 260.0842,
        "meta_mean_anomaly": 129.3276,
        "meta_ephemeris_type": 0,
        "meta_classification_type": "U",
        "meta_norad_cat_id": 34985,
        "meta_element_set_no": 999,
        "meta_rev_at_epoch": 87009,
        "meta_bstar": 0.00086459,
        "meta_mean_motion_dot": 2.856e-05,
        "meta_mean_motion_ddot": 0,
        "tle_line1": "1 34985U 97051NR  25335.22244500  .00002856  00000+0  86459-3 0  9993",
        "tle_line2": "2 34985  86.3697  61.7912 0019807 260.0842 129.3276 14.41925550870093"
      },
      "geometry": {
        "type": "Point",
        "coordinates": [
          67.72945912419026,
          60.277507788814525
        ]
      }
    },
    {
      "type": "Feature",
      "properties": {
        "norad_id": 35051,
        "name": "IRIDIUM 33 DEB",
        "group": "iridium-33-debris",
        "lat": 36.88434115930869,
        "lon": -169.33882276583222,
        "alt_km": 724.4436724808738,
        "timestamp": "2025-12-02T06:27:53.397038+00:00",
        "meta_object_name": "IRIDIUM 33 DEB",
        "meta_object_id": "1997-051NX",
        "meta_epoch": "2025-12-01T09:53:54.581856",
        "meta_mean_motion": 14.47515304,
        "meta_eccentricity": 0.00104451,
        "meta_inclination": 86.3252,
        "meta_ra_of_asc_node": 13.7986,
        "meta_arg_of_pericenter": 121.6547,
        "meta_mean_anomaly": 238.5677,
        "meta_ephemeris_type": 0,
        "meta_classification_type": "U",
        "meta_norad_cat_id": 35051,
        "meta_element_set_no": 999,
        "meta_rev_at_epoch": 86832,
        "meta_bstar": 0.00073041402,
        "meta_mean_motion_dot": 2.705e-05,
        "meta_mean_motion_ddot": 0,
        "tle_line1": "1 35051U 97051NX  25335.41243729  .00002705  00000+0  73041-3 0  9997",
        "tle_line2": "2 35051  86.3252  13.7986 0010445 121.6547 238.5677 14.47515304868325"
      },
      "geometry": {
        "type": "Point",
        "coordinates": [
          -169.33882276583222,
          36.88434115930869
        ]
      }
    }
  ]
}